CCSDS_OMM_VERS = 2.0
CREATION_DATE  = 
ORIGINATOR     = 

OBJECT_NAME    = STARLINK-36697
OBJECT_ID      = 2026-025F
CENTER_NAME    = EARTH
REF_FRAME      = TEME
TIME_SYSTEM    = UTC
MEAN_ELEMENT_THEORY = SGP/SGP4

EPOCH          = 2026-03-05T01:15:13.046976
MEAN_MOTION    = 15.80919796
ECCENTRICITY   = .0001634
INCLINATION    = 97.2850
RA_OF_ASC_NODE = 175.4586
ARG_OF_PERICENTER = 54.2710
MEAN_ANOMALY   = 305.8710

EPHEMERIS_TYPE = 0
CLASSIFICATION_TYPE = U
NORAD_CAT_ID   = 67698
ELEMENT_SET_NO = 999
REV_AT_EPOCH   = 521
BSTAR          = .20031E-2
MEAN_MOTION_DOT = .403764E-2
MEAN_MOTION_DDOT = 0

CCSDS_OMM_VERS = 2.0
CREATION_DATE  = 
ORIGINATOR     = 

OBJECT_NAME    = STARLINK-36716
OBJECT_ID      = 2026-025G
CENTER_NAME    = EARTH
REF_FRAME      = TEME
TIME_SYSTEM    = UTC
MEAN_ELEMENT_THEORY = SGP/SGP4

EPOCH          = 2026-03-05T04:00:01.999584
MEAN_MOTION    = 15.75130876
ECCENTRICITY   = .0001131
INCLINATION    = 97.2850
RA_OF_ASC_NODE = 175.5712
ARG_OF_PERICENTER = 78.0011
MEAN_ANOMALY   = 192.3828

EPHEMERIS_TYPE = 0
CLASSIFICATION_TYPE = U
NORAD_CAT_ID   = 67699
ELEMENT_SET_NO = 999
REV_AT_EPOCH   = 528
BSTAR          = .64484E-3
MEAN_MOTION_DOT = .969E-3
MEAN_MOTION_DDOT = 0

CCSDS_OMM_VERS = 2.0
CREATION_DATE  = 
ORIGINATOR     = 

OBJECT_NAME    = STARLINK-36712
OBJECT_ID      = 2026-025H
CENTER_NAME    = EARTH
REF_FRAME      = TEME
TIME_SYSTEM    = UTC
MEAN_ELEMENT_THEORY = SGP/SGP4

EPOCH          = 2026-03-05T04:51:18.585216
MEAN_MOTION    = 15.75364847
ECCENTRICITY   = .0004018
INCLINATION    = 97.2846
RA_OF_ASC_NODE = 175.5594
ARG_OF_PERICENTER = 70.8905
MEAN_ANOMALY   = 289.2795

EPHEMERIS_TYPE = 0
CLASSIFICATION_TYPE = U
NORAD_CAT_ID   = 67700
ELEMENT_SET_NO = 999
REV_AT_EPOCH   = 523
BSTAR          = .25353E-2
MEAN_MOTION_DOT = .399309E-2
MEAN_MOTION_DDOT = 0

CCSDS_OMM_VERS = 2.0
CREATION_DATE  = 
ORIGINATOR     = 

OBJECT_NAME    = STARLINK-36713
OBJECT_ID      = 2026-025J
CENTER_NAME    = EARTH
REF_FRAME      = TEME
TIME_SYSTEM    = UTC
MEAN_ELEMENT_THEORY = SGP/SGP4

EPOCH          = 2026-03-05T04:53:50.654400
MEAN_MOTION    = 15.75408049
ECCENTRICITY   = .0001707
INCLINATION    = 97.2850
RA_OF_ASC_NODE = 175.5563
ARG_OF_PERICENTER = 95.4059
MEAN_ANOMALY   = 264.7401

EPHEMERIS_TYPE = 0
CLASSIFICATION_TYPE = U
NORAD_CAT_ID   = 67701
ELEMENT_SET_NO = 999
REV_AT_EPOCH   = 524
BSTAR          = .30553E-2
MEAN_MOTION_DOT = .48714E-2
MEAN_MOTION_DDOT = 0

CCSDS_OMM_VERS = 2.0
CREATION_DATE  = 
ORIGINATOR     = 

OBJECT_NAME    = STARLINK-36695
OBJECT_ID      = 2026-025K
CENTER_NAME    = EARTH
REF_FRAME      = TEME
TIME_SYSTEM    = UTC
MEAN_ELEMENT_THEORY = SGP/SGP4

EPOCH          = 2026-03-05T01:53:56.352480
MEAN_MOTION    = 15.75235357
ECCENTRICITY   = .0001246
INCLINATION    = 97.2857
RA_OF_ASC_NODE = 175.4177
ARG_OF_PERICENTER = 54.8757
MEAN_ANOMALY   = 305.2625

EPHEMERIS_TYPE = 0
CLASSIFICATION_TYPE = U
NORAD_CAT_ID   = 67702
ELEMENT_SET_NO = 999
REV_AT_EPOCH   = 521
BSTAR          = .1486E-2
MEAN_MOTION_DOT = .227983E-2
MEAN_MOTION_DDOT = 0

CCSDS_OMM_VERS = 2.0
CREATION_DATE  = 
ORIGINATOR     = 

OBJECT_NAME    = STARLINK-36630
OBJECT_ID      = 2026-025L
CENTER_NAME    = EARTH
REF_FRAME      = TEME
TIME_SYSTEM    = UTC
MEAN_ELEMENT_THEORY = SGP/SGP4

EPOCH          = 2026-03-04T06:49:54.557472
MEAN_MOTION    = 15.80886698
ECCENTRICITY   = .00020658
INCLINATION    = 97.2851
RA_OF_ASC_NODE = 174.6635
ARG_OF_PERICENTER = 101.8148
MEAN_ANOMALY   = 258.3352

EPHEMERIS_TYPE = 0
CLASSIFICATION_TYPE = U
NORAD_CAT_ID   = 67703
ELEMENT_SET_NO = 999
REV_AT_EPOCH   = 509
BSTAR          = .88510392E-3
MEAN_MOTION_DOT = .173374E-2
MEAN_MOTION_DDOT = 0

CCSDS_OMM_VERS = 2.0
CREATION_DATE  = 
ORIGINATOR     = 

OBJECT_NAME    = STARLINK-36338
OBJECT_ID      = 2026-025M
CENTER_NAME    = EARTH
REF_FRAME      = TEME
TIME_SYSTEM    = UTC
MEAN_ELEMENT_THEORY = SGP/SGP4

EPOCH          = 2026-03-05T00:00:01.999296
MEAN_MOTION    = 15.75219148
ECCENTRICITY   = .0001567
INCLINATION    = 97.2853
RA_OF_ASC_NODE = 175.3893
ARG_OF_PERICENTER = 123.9062
MEAN_ANOMALY   = 269.9642

EPHEMERIS_TYPE = 0
CLASSIFICATION_TYPE = U
NORAD_CAT_ID   = 67704
ELEMENT_SET_NO = 999
REV_AT_EPOCH   = 515
BSTAR          = -.24031E-3
MEAN_MOTION_DOT = -.3587E-3
MEAN_MOTION_DDOT = 0

CCSDS_OMM_VERS = 2.0
CREATION_DATE  = 
ORIGINATOR     = 

OBJECT_NAME    = STARLINK-36316
OBJECT_ID      = 2026-025N
CENTER_NAME    = EARTH
REF_FRAME      = TEME
TIME_SYSTEM    = UTC
MEAN_ELEMENT_THEORY = SGP/SGP4

EPOCH          = 2026-03-04T07:19:23.280384
MEAN_MOTION    = 15.75210312
ECCENTRICITY   = .00015982
INCLINATION    = 97.2857
RA_OF_ASC_NODE = 174.6360
ARG_OF_PERICENTER = 22.7500
MEAN_ANOMALY   = 337.3836

EPHEMERIS_TYPE = 0
CLASSIFICATION_TYPE = U
NORAD_CAT_ID   = 67705
ELEMENT_SET_NO = 999
REV_AT_EPOCH   = 509
BSTAR          = .17620146E-2
MEAN_MOTION_DOT = .271453E-2
MEAN_MOTION_DDOT = 0

CCSDS_OMM_VERS = 2.0
CREATION_DATE  = 
ORIGINATOR     = 

OBJECT_NAME    = STARLINK-36707
OBJECT_ID      = 2026-025P
CENTER_NAME    = EARTH
REF_FRAME      = TEME
TIME_SYSTEM    = UTC
MEAN_ELEMENT_THEORY = SGP/SGP4

EPOCH          = 2026-03-05T04:00:01.999584
MEAN_MOTION    = 15.75151017
ECCENTRICITY   = .0001364
INCLINATION    = 97.2856
RA_OF_ASC_NODE = 175.5876
ARG_OF_PERICENTER = 66.4443
MEAN_ANOMALY   = 247.9244

EPHEMERIS_TYPE = 0
CLASSIFICATION_TYPE = U
NORAD_CAT_ID   = 67706
ELEMENT_SET_NO = 999
REV_AT_EPOCH   = 497
BSTAR          = .56982E-3
MEAN_MOTION_DOT = .85574E-3
MEAN_MOTION_DDOT = 0

CCSDS_OMM_VERS = 2.0
CREATION_DATE  = 
ORIGINATOR     = 

OBJECT_NAME    = STARLINK-36645
OBJECT_ID      = 2026-025Q
CENTER_NAME    = EARTH
REF_FRAME      = TEME
TIME_SYSTEM    = UTC
MEAN_ELEMENT_THEORY = SGP/SGP4

EPOCH          = 2026-03-04T21:08:18.723264
MEAN_MOTION    = 15.75152092
ECCENTRICITY   = .0001064
INCLINATION    = 97.2861
RA_OF_ASC_NODE = 175.2306
ARG_OF_PERICENTER = 171.3735
MEAN_ANOMALY   = 188.7549

EPHEMERIS_TYPE = 0
CLASSIFICATION_TYPE = U
NORAD_CAT_ID   = 67707
ELEMENT_SET_NO = 999
REV_AT_EPOCH   = 518
BSTAR          = .24718E-2
MEAN_MOTION_DOT = .385062E-2
MEAN_MOTION_DDOT = 0

CCSDS_OMM_VERS = 2.0
CREATION_DATE  = 
ORIGINATOR     = 

OBJECT_NAME    = STARLINK-36287
OBJECT_ID      = 2026-025R
CENTER_NAME    = EARTH
REF_FRAME      = TEME
TIME_SYSTEM    = UTC
MEAN_ELEMENT_THEORY = SGP/SGP4

EPOCH          = 2026-03-05T04:00:01.999584
MEAN_MOTION    = 15.76668260
ECCENTRICITY   = .0001532
INCLINATION    = 97.2858
RA_OF_ASC_NODE = 175.6165
ARG_OF_PERICENTER = 66.5286
MEAN_ANOMALY   = 316.7725

EPHEMERIS_TYPE = 0
CLASSIFICATION_TYPE = U
NORAD_CAT_ID   = 67708
ELEMENT_SET_NO = 999
REV_AT_EPOCH   = 528
BSTAR          = -.11709E-1
MEAN_MOTION_DOT = -.1623105E-1
MEAN_MOTION_DDOT = 0

CCSDS_OMM_VERS = 2.0
CREATION_DATE  = 
ORIGINATOR     = 

OBJECT_NAME    = STARLINK-36698
OBJECT_ID      = 2026-025S
CENTER_NAME    = EARTH
REF_FRAME      = TEME
TIME_SYSTEM    = UTC
MEAN_ELEMENT_THEORY = SGP/SGP4

EPOCH          = 2026-03-05T04:00:01.999584
MEAN_MOTION    = 15.77721073
ECCENTRICITY   = .0001702
INCLINATION    = 97.2854
RA_OF_ASC_NODE = 175.6344
ARG_OF_PERICENTER = 64.5724
MEAN_ANOMALY   = 1.0087

EPHEMERIS_TYPE = 0
CLASSIFICATION_TYPE = U
NORAD_CAT_ID   = 67709
ELEMENT_SET_NO = 999
REV_AT_EPOCH   = 513
BSTAR          = -.12854E-1
MEAN_MOTION_DOT = -.1873096E-1
MEAN_MOTION_DDOT = 0

